{
  "type": "FeatureCollection",
  "features": [
    {
      "type": "Feature",
      "properties": {
        "norad_id": 34556,
        "name": "COSMOS 2251 DEB",
        "group": "cosmos-2251-debris",
        "lat": 0.6963990220875158,
        "lon": 115.07894975248938,
        "alt_km": 643.3619531458744,
        "timestamp": "2025-12-17T19:34:08.432255+00:00",
        "meta_object_name": "COSMOS 2251 DEB",
        "meta_object_id": "1993-036US",
        "meta_epoch": "2025-12-17T08:20:00.331584",
        "meta_mean_motion": 14.77947375,
        "meta_eccentricity": 0.00071927,
        "meta_inclination": 74.0156,
        "meta_ra_of_asc_node": 115.7992,
        "meta_arg_of_pericenter": 175.9532,
        "meta_mean_anomaly": 215.0866,
        "meta_ephemeris_type": 0,
        "meta_classification_type": "U",
        "meta_norad_cat_id": 34556,
        "meta_element_set_no": 999,
        "meta_rev_at_epoch": 88397,
        "meta_bstar": 0.0016950089,
        "meta_mean_motion_dot": 0.00012211,
        "meta_mean_motion_ddot": 0,
        "tle_line1": "1 34556U 93036US  25351.34722606  .00012211  00000+0  16950-2 0  9999",
        "tle_line2": "2 34556  74.0156 115.7992 0007192 175.9532 215.0866 14.77947375883970"
      },
      "geometry": {
        "type": "Point",
        "coordinates": [
          115.07894975248938,
          0.6963990220875158
        ]
      }
    },
    {
      "type": "Feature",
      "properties": {
        "norad_id": 34560,
        "name": "COSMOS 2251 DEB",
        "group": "cosmos-2251-debris",
        "lat": 28.209729809047488,
        "lon": -56.599278653939805,
        "alt_km": 647.6999582537928,
        "timestamp": "2025-12-17T19:34:08.432265+00:00",
        "meta_object_name": "COSMOS 2251 DEB",
        "meta_object_id": "1993-036UW",
        "meta_epoch": "2025-12-16T20:36:13.867776",
        "meta_mean_motion": 14.72247709,
        "meta_eccentricity": 0.00143485,
        "meta_inclination": 74.0156,
        "meta_ra_of_asc_node": 134.1089,
        "meta_arg_of_pericenter": 215.7701,
        "meta_mean_anomaly": 265.3357,
        "meta_ephemeris_type": 0,
        "meta_classification_type": "U",
        "meta_norad_cat_id": 34560,
        "meta_element_set_no": 999,
        "meta_rev_at_epoch": 88312,
        "meta_bstar": 0.0016577114,
        "meta_mean_motion_dot": 0.00010467,
        "meta_mean_motion_ddot": 0,
        "tle_line1": "1 34560U 93036UW  25350.85849384  .00010467  00000+0  16577-2 0  9998",
        "tle_line2": "2 34560  74.0156 134.1089 0014348 215.7701 265.3357 14.72247709883128"
      },
      "geometry": {
        "type": "Point",
        "coordinates": [
          -56.599278653939805,
          28.209729809047488
        ]
      }
    },
    {
      "type": "Feature",
      "properties": {
        "norad_id": 34563,
        "name": "COSMOS 2251 DEB",
        "group": "cosmos-2251-debris",
        "lat": 12.89849293472741,
        "lon": 10.474119843064118,
        "alt_km": 742.9638055312262,
        "timestamp": "2025-12-17T19:34:08.432275+00:00",
        "meta_object_name": "COSMOS 2251 DEB",
        "meta_object_id": "1993-036UZ",
        "meta_epoch": "2025-12-17T08:00:38.799360",
        "meta_mean_motion": 14.46524734,
        "meta_eccentricity": 0.00138984,
        "meta_inclination": 74.0374,
        "meta_ra_of_asc_node": 195.1312,
        "meta_arg_of_pericenter": 288.902,
        "meta_mean_anomaly": 250.8254,
        "meta_ephemeris_type": 0,
        "meta_classification_type": "U",
        "meta_norad_cat_id": 34563,
        "meta_element_set_no": 999,
        "meta_rev_at_epoch": 88263,
        "meta_bstar": 0.00034247643,
        "meta_mean_motion_dot": 1.208e-05,
        "meta_mean_motion_ddot": 0,
        "tle_line1": "1 34563U 93036UZ  25351.33378240  .00001208  00000+0  34248-3 0  9992",
        "tle_line2": "2 34563  74.0374 195.1312 0013898 288.9020 250.8254 14.46524734882631"
      },
      "geometry": {
        "type": "Point",
        "coordinates": [
          10.474119843064118,
          12.89849293472741
        ]
      }
    },
    {
      "type": "Feature",
      "properties": {
        "norad_id": 34564,
        "name": "COSMOS 2251 DEB",
        "group": "cosmos-2251-debris",
        "lat": -18.34480654729315,
        "lon": 54.0697541030764,
        "alt_km": 770.132268917655,
        "timestamp": "2025-12-17T19:34:08.432285+00:00",
        "meta_object_name": "COSMOS 2251 DEB",
        "meta_object_id": "1993-036VA",
        "meta_epoch": "2025-12-17T02:18:46.258272",
        "meta_mean_motion": 14.40698103,
        "meta_eccentricity": 0.00191821,
        "meta_inclination": 74.032,
        "meta_ra_of_asc_node": 229.9516,
        "meta_arg_of_pericenter": 333.2512,
        "meta_mean_anomaly": 98.2747,
        "meta_ephemeris_type": 0,
        "meta_classification_type": "U",
        "meta_norad_cat_id": 34564,
        "meta_element_set_no": 999,
        "meta_rev_at_epoch": 88069,
        "meta_bstar": 0.00022254662,
        "meta_mean_motion_dot": 6.86e-06,
        "meta_mean_motion_ddot": 0,
        "tle_line1": "1 34564U 93036VA  25351.09636873  .00000686  00000+0  22255-3 0  9999",
        "tle_line2": "2 34564  74.0320 229.9516 0019182 333.2512  98.2747 14.40698103880698"
      },
      "geometry": {
        "type": "Point",
        "coordinates": [
          54.0697541030764,
          -18.34480654729315
        ]
      }
    },
    {
      "type": "Feature",
      "properties": {
        "norad_id": 34567,
        "name": "COSMOS 2251 DEB",
        "group": "cosmos-2251-debris",
        "lat": -55.04302986777966,
        "lon": 123.48199390001389,
        "alt_km": 809.4860828875871,
        "timestamp": "2025-12-17T19:34:08.432296+00:00",
        "meta_object_name": "COSMOS 2251 DEB",
        "meta_object_id": "1993-036VD",
        "meta_epoch": "2025-12-17T05:30:26.043840",
        "meta_mean_motion": 14.24021461,
        "meta_eccentricity": 0.00743319,
        "meta_inclination": 74.0404,
        "meta_ra_of_asc_node": 148.6996,
        "meta_arg_of_pericenter": 222.0209,
        "meta_mean_anomaly": 316.2759,
        "meta_ephemeris_type": 0,
        "meta_classification_type": "U",
        "meta_norad_cat_id": 34567,
        "meta_element_set_no": 999,
        "meta_rev_at_epoch": 87188,
        "meta_bstar": 0.00020340785,
        "meta_mean_motion_dot": 4.55e-06,
        "meta_mean_motion_ddot": 0,
        "tle_line1": "1 34567U 93036VD  25351.22946810  .00000455  00000+0  20341-3 0  9990",
        "tle_line2": "2 34567  74.0404 148.6996 0074331 222.0209 316.2759 14.24021461871884"
      },
      "geometry": {
        "type": "Point",
        "coordinates": [
          123.48199390001389,
          -55.04302986777966
        ]
      }
    },
    {
      "type": "Feature",
      "properties": {
        "norad_id": 34569,
        "name": "COSMOS 2251 DEB",
        "group": "cosmos-2251-debris",
        "lat": 54.30086278564892,
        "lon": -14.594783795457097,
        "alt_km": 833.5144948530578,
        "timestamp": "2025-12-17T19:34:08.432305+00:00",
        "meta_object_name": "COSMOS 2251 DEB",
        "meta_object_id": "1993-036VF",
        "meta_epoch": "2025-12-17T08:02:40.517088",
        "meta_mean_motion": 14.24764218,
        "meta_eccentricity": 0.01575191,
        "meta_inclination": 73.9892,
        "meta_ra_of_asc_node": 189.8265,
        "meta_arg_of_pericenter": 17.1682,
        "meta_mean_anomaly": 161.4127,
        "meta_ephemeris_type": 0,
        "meta_classification_type": "U",
        "meta_norad_cat_id": 34569,
        "meta_element_set_no": 999,
        "meta_rev_at_epoch": 87033,
        "meta_bstar": 0.00040474614,
        "meta_mean_motion_dot": 1.047e-05,
        "meta_mean_motion_ddot": 0,
        "tle_line1": "1 34569U 93036VF  25351.33519117  .00001047  00000+0  40475-3 0  9998",
        "tle_line2": "2 34569  73.9892 189.8265 0157519  17.1682 161.4127 14.24764218870331"
      },
      "geometry": {
        "type": "Point",
        "coordinates": [
          -14.594783795457097,
          54.30086278564892
        ]
      }
    },
    {
      "type": "Feature",
      "properties": {
        "norad_id": 34570,
        "name": "COSMOS 2251 DEB",
        "group": "cosmos-2251-debris",
        "lat": -43.44016675715001,
        "lon": -166.35648176626495,
        "alt_km": 999.6486561096972,
        "timestamp": "2025-12-17T19:34:08.432315+00:00",
        "meta_object_name": "COSMOS 2251 DEB",
        "meta_object_id": "1993-036VG",
        "meta_epoch": "2025-12-17T08:36:06.090912",
        "meta_mean_motion": 13.99827427,
        "meta_eccentricity": 0.01902651,
        "meta_inclination": 73.9567,
        "meta_ra_of_asc_node": 210.2504,
        "meta_arg_of_pericenter": 91.7058,
        "meta_mean_anomaly": 82.2506,
        "meta_ephemeris_type": 0,
        "meta_classification_type": "U",
        "meta_norad_cat_id": 34570,
        "meta_element_set_no": 999,
        "meta_rev_at_epoch": 85665,
        "meta_bstar": 0.00041528041,
        "meta_mean_motion_dot": 6.89e-06,
        "meta_mean_motion_ddot": 0,
        "tle_line1": "1 34570U 93036VG  25351.35840383  .00000689  00000+0  41528-3 0  9995",
        "tle_line2": "2 34570  73.9567 210.2504 0190265  91.7058  82.2506 13.99827427856650"
      },
      "geometry": {
        "type": "Point",
        "coordinates": [
          -166.35648176626495,
          -43.44016675715001
        ]
      }
    }
  ]
}